EARTHCARE               
1 59908U 24101A   24293.91476704  .00040666  00000+0  56127-3 0  9992
2 59908  96.9938  58.9713 0001391  95.4277 264.7138 15.57080380 22381
